{ "C43": {"norda": "44794", "Classification": "U", "internationalid": "19078B  ", "time": "23359.98805572", "l1": "-.00000106", "l2": " 00000+0", "bstar": " 00000+0", "orbittype": "0", "tlecounts": " 999", "Inclination": " 54.6608", "Right_Ascension_of_the_Ascending_Node": "331.3857", "Eccentricity": "0004367", "Argument_of_Perigee": "352.5347", "Mean_Anomaly": "  7.4453", "Mean_Motion": " 1.86232540", "alreadyflys": " 2781", "gap": 1}, "C41": {"norda": "44864", "Classification": "U", "internationalid": "19090A  ", "time": "23359.69715873", "l1": "-.00000066", "l2": " 00000+0", "bstar": " 00000+0", "orbittype": "0", "tlecounts": " 999", "Inclination": " 55.7910", "Right_Ascension_of_the_Ascending_Node": " 92.8882", "Eccentricity": "0017452", "Argument_of_Perigee": "273.6075", "Mean_Anomaly": " 84.7997", "Mean_Motion": " 1.86231596", "alreadyflys": " 2738", "gap": 1}, "C42": {"norda": "44865", "Classification": "U", "internationalid": "19090B  ", "time": "23359.56596784", "l1": "-.00000066", "l2": " 00000+0", "bstar": " 00000+0", "orbittype": "0", "tlecounts": " 999", "Inclination": " 55.7927", "Right_Ascension_of_the_Ascending_Node": " 92.9256", "Eccentricity": "0014951", "Argument_of_Perigee": "286.4407", "Mean_Anomaly": " 73.7791", "Mean_Motion": " 1.86231552", "alreadyflys": " 2736", "gap": 1}, "C60": {"norda": "45344", "Classification": "U", "internationalid": "20017A  ", "time": "23360.12296425", "l1": "-.00000133", "l2": " 00000+0", "bstar": " 00000+0", "orbittype": "0", "tlecounts": " 999", "Inclination": "  2.1310", "Right_Ascension_of_the_Ascending_Node": " 22.0254", "Eccentricity": "0003592", "Argument_of_Perigee": "244.1743", "Mean_Anomaly": "312.4506", "Mean_Motion": " 1.00271754", "alreadyflys": " 1420", "gap": 1}, "C61": {"norda": "45807", "Classification": "U", "internationalid": "20040A  ", "time": "23359.84263639", "l1": "-.00000344", "l2": " 00000+0", "bstar": " 00000+0", "orbittype": "0", "tlecounts": " 999", "Inclination": "  0.5827", "Right_Ascension_of_the_Ascending_Node": " 10.0797", "Eccentricity": "0009778", "Argument_of_Perigee": "302.2701", "Mean_Anomaly": "195.6450", "Mean_Motion": " 1.00269520", "alreadyflys": " 1300", "gap": 1}, "C62": {"norda": "56564", "Classification": "U", "internationalid": "23066A  ", "time": "23359.78085021", "l1": "-.00000097", "l2": " 00000+0", "bstar": " 00000+0", "orbittype": "0", "tlecounts": " 999", "Inclination": "  2.5596", "Right_Ascension_of_the_Ascending_Node": "288.3845", "Eccentricity": "0003574", "Argument_of_Perigee": "239.8491", "Mean_Anomaly": "  6.9565", "Mean_Motion": " 1.00272456", "alreadyflys": "  232", "gap": 1}}